{"type": "FeatureCollection", "features": [ {"type": "Feature", "properties": {"norad_id": 37927, "name": "FENGYUN 1C DEB", "group": "fengyun-1c-debris", "lat": -66.17777913737389, "lon": 155.81295013247845, "alt_km": 656.9267189401862, "timestamp": "2025-12-17T04:57:44.654431+00:00", "meta": {"OBJECT_NAME": "FENGYUN 1C DEB", "OBJECT_ID": "1999-025EPC", "EPOCH": "2025-12-13T03:22:49.865088", "MEAN_MOTION": 14.71770998, "ECCENTRICITY": 0.0007968, "INCLINATION": 98.8073, "RA_OF_ASC_NODE": 130.856, "ARG_OF_PERICENTER": 272.9948, "MEAN_ANOMALY": 87.0345, "EPHEMERIS_TYPE": 0, "CLASSIFICATION_TYPE": "U", "NORAD_CAT_ID": 37927, "ELEMENT_SET_NO": 999, "REV_AT_EPOCH": 65122, "BSTAR": 0.0058007342, "MEAN_MOTION_DOT": 0.0003637, "MEAN_MOTION_DDOT": 0}, "tle": {"line1": "1 37927U 99025EPC 25347.14085492  .00036370  00000+0  58007-2 0  9997", "line2": "2 37927  98.8073 130.8560 0007968 272.9948  87.0345 14.71770998651225"}}, "geometry": {"type": "Point", "coordinates": [155.81295013247845, -66.17777913737389]}}, {"type": "Feature", "properties": {"norad_id": 37928, "name": "FENGYUN 1C DEB", "group": "fengyun-1c-debris", "lat": 32.08671549982092, "lon": -139.6835693920575, "alt_km": 715.1513384424434, "timestamp": "2025-12-17T04:57:44.654440+00:00", "meta": {"OBJECT_NAME": "FENGYUN 1C DEB", "OBJECT_ID": "1999-025EPD", "EPOCH": "2025-12-15T09:22:08.363712", "MEAN_MOTION": 14.37112428, "ECCENTRICITY": 0.00730461, "INCLINATION": 98.9158, "RA_OF_ASC_NODE": 224.0834, "ARG_OF_PERICENTER": 25.3937, "MEAN_ANOMALY": 335.0809, "EPHEMERIS_TYPE": 0, "CLASSIFICATION_TYPE": "U", "NORAD_CAT_ID": 37928, "ELEMENT_SET_NO": 999, "REV_AT_EPOCH": 81230, "BSTAR": 0.00052318414, "MEAN_MOTION_DOT": 1.555e-05, "MEAN_MOTION_DDOT": 0}, "tle": {"line1": "1 37928U 99025EPD 25349.39037458  .00001555  00000+0  52318-3 0  9993", "line2": "2 37928  98.9158 224.0834 0073046  25.3937 335.0809 14.37112428812308"}}, "geometry": {"type": "Point", "coordinates": [-139.6835693920575, 32.08671549982092]}}, {"type": "Feature", "properties": {"norad_id": 38116, "name": "FENGYUN 1C DEB", "group": "fengyun-1c-debris", "lat": 81.21145088354743, "lon": -52.84222821759602, "alt_km": 790.8260652096124, "timestamp": "2025-12-17T04:57:44.654449+00:00", "meta": {"OBJECT_NAME": "FENGYUN 1C DEB", "OBJECT_ID": "1999-025EPM", "EPOCH": "2025-12-13T09:07:05.482848", "MEAN_MOTION": 14.17018726, "ECCENTRICITY": 0.00724721, "INCLINATION": 98.7128, "RA_OF_ASC_NODE": 26.1003, "ARG_OF_PERICENTER": 144.8988, "MEAN_ANOMALY": 233.7196, "EPHEMERIS_TYPE": 0, "CLASSIFICATION_TYPE": "U", "NORAD_CAT_ID": 38116, "ELEMENT_SET_NO": 999, "REV_AT_EPOCH": 64494, "BSTAR": 0.00072544359, "MEAN_MOTION_DOT": 1.454e-05, "MEAN_MOTION_DDOT": 0}, "tle": {"line1": "1 38116U 99025EPM 25347.37992457  .00001454  00000+0  72544-3 0  9999", "line2": "2 38116  98.7128  26.1003 0072472 144.8988 233.7196 14.17018726644947"}}, "geometry": {"type": "Point", "coordinates": [-52.84222821759602, 81.21145088354743]}}, {"type": "Feature", "properties": {"norad_id": 38121, "name": "FENGYUN 1C DEB", "group": "fengyun-1c-debris", "lat": 74.25996617318626, "lon": 108.1065414985816, "alt_km": 693.5881752779969, "timestamp": "2025-12-17T04:57:44.654458+00:00", "meta": {"OBJECT_NAME": "FENGYUN 1C DEB", "OBJECT_ID": "1999-025EPS", "EPOCH": "2025-12-13T04:20:01.430304", "MEAN_MOTION": 14.21784212, "ECCENTRICITY": 0.02064826, "INCLINATION": 99.1148, "RA_OF_ASC_NODE": 138.6695, "ARG_OF_PERICENTER": 126.4735, "MEAN_ANOMALY": 235.5664, "EPHEMERIS_TYPE": 0, "CLASSIFICATION_TYPE": "U", "NORAD_CAT_ID": 38121, "ELEMENT_SET_NO": 999, "REV_AT_EPOCH": 83926, "BSTAR": 0.0016630973, "MEAN_MOTION_DOT": 4.5e-05, "MEAN_MOTION_DDOT": 0}, "tle": {"line1": "1 38121U 99025EPS 25347.18057211  .00004500  00000+0  16631-2 0  9993", "line2": "2 38121  99.1148 138.6695 0206482 126.4735 235.5664 14.21784212839268"}}, "geometry": {"type": "Point", "coordinates": [108.1065414985816, 74.25996617318626]}}, {"type": "Feature", "properties": {"norad_id": 38122, "name": "FENGYUN 1C DEB", "group": "fengyun-1c-debris", "lat": -12.439621698816431, "lon": -4.6124227705508325, "alt_km": 901.6732563001924, "timestamp": "2025-12-17T04:57:44.654467+00:00", "meta": {"OBJECT_NAME": "FENGYUN 1C DEB", "OBJECT_ID": "1999-025EPT", "EPOCH": "2025-12-15T18:03:58.490784", "MEAN_MOTION": 14.42658097, "ECCENTRICITY": 0.0227791, "INCLINATION": 98.3191, "RA_OF_ASC_NODE": 352.118, "ARG_OF_PERICENTER": 147.7709, "MEAN_ANOMALY": 213.7638, "EPHEMERIS_TYPE": 0, "CLASSIFICATION_TYPE": "U", "NORAD_CAT_ID": 38122, "ELEMENT_SET_NO": 999, "REV_AT_EPOCH": 67782, "BSTAR": 0.0002838152, "MEAN_MOTION_DOT": 1.239e-05, "MEAN_MOTION_DDOT": 0}, "tle": {"line1": "1 38122U 99025EPT 25349.75276031  .00001239  00000+0  28382-3 0  9995", "line2": "2 38122  98.3191 352.1180 0227791 147.7709 213.7638 14.42658097677828"}}, "geometry": {"type": "Point", "coordinates": [-4.6124227705508325, -12.439621698816431]}}, {"type": "Feature", "properties": {"norad_id": 38124, "name": "FENGYUN 1C DEB", "group": "fengyun-1c-debris", "lat": 82.04674195383342, "lon": -136.38525128354095, "alt_km": 1335.671554876798, "timestamp": "2025-12-17T04:57:44.654476+00:00", "meta": {"OBJECT_NAME": "FENGYUN 1C DEB", "OBJECT_ID": "1999-025EPV", "EPOCH": "2025-12-13T03:48:53.053632", "MEAN_MOTION": 13.40935403, "ECCENTRICITY": 0.03557245, "INCLINATION": 97.8087, "RA_OF_ASC_NODE": 299.6458, "ARG_OF_PERICENTER": 305.0279, "MEAN_ANOMALY": 51.7953, "EPHEMERIS_TYPE": 0, "CLASSIFICATION_TYPE": "U", "NORAD_CAT_ID": 38124, "ELEMENT_SET_NO": 999, "REV_AT_EPOCH": 54587, "BSTAR": 0.00060323956, "MEAN_MOTION_DOT": 4.51e-06, "MEAN_MOTION_DDOT": 0}, "tle": {"line1": "1 38124U 99025EPV 25347.15894738  .00000451  00000+0  60324-3 0  9996", "line2": "2 38124  97.8087 299.6458 0355724 305.0279  51.7953 13.40935403545875"}}, "geometry": {"type": "Point", "coordinates": [-136.38525128354095, 82.04674195383342]}}, {"type": "Feature", "properties": {"norad_id": 38130, "name": "FENGYUN 1C DEB", "group": "fengyun-1c-debris", "lat": 11.45056565727087, "lon": 40.73424255563937, "alt_km": 1117.277985112165, "timestamp": "2025-12-17T04:57:44.654485+00:00", "meta": {"OBJECT_NAME": "FENGYUN 1C DEB", "OBJECT_ID": "1999-025EQB", "EPOCH": "2025-11-28T09:19:02.490528", "MEAN_MOTION": 13.7720595, "ECCENTRICITY": 0.02085156, "INCLINATION": 98.6035, "RA_OF_ASC_NODE": 25.4413, "ARG_OF_PERICENTER": 263.5047, "MEAN_ANOMALY": 94.2329, "EPHEMERIS_TYPE": 0, "CLASSIFICATION_TYPE": "U", "NORAD_CAT_ID": 38130, "ELEMENT_SET_NO": 999, "REV_AT_EPOCH": 69085, "BSTAR": 0.0016964005, "MEAN_MOTION_DOT": 1.933e-05, "MEAN_MOTION_DDOT": 0}, "tle": {"line1": "1 38130U 99025EQB 25332.38822327  .00001933  00000+0  16964-2 0  9993", "line2": "2 38130  98.6035  25.4413 0208515 263.5047  94.2329 13.77205950690851"}}, "geometry": {"type": "Point", "coordinates": [40.73424255563937, 11.45056565727087]}}, {"type": "Feature", "properties": {"norad_id": 38135, "name": "FENGYUN 1C DEB", "group": "fengyun-1c-debris", "lat": 72.90815656652936, "lon": 18.221744972761062, "alt_km": 646.6185923693447, "timestamp": "2025-12-17T04:57:44.654494+00:00", "meta": {"OBJECT_NAME": "FENGYUN 1C DEB", "OBJECT_ID": "1999-025EQG", "EPOCH": "2025-12-04T09:59:10.811040", "MEAN_MOTION": 14.2524882, "ECCENTRICITY": 0.0223375, "INCLINATION": 98.6606, "RA_OF_ASC_NODE": 35.2993, "ARG_OF_PERICENTER": 95.5388, "MEAN_ANOMALY": 267.1312, "EPHEMERIS_TYPE": 0, "CLASSIFICATION_TYPE": "U", "NORAD_CAT_ID": 38135, "ELEMENT_SET_NO": 999, "REV_AT_EPOCH": 60922, "BSTAR": 0.00083169, "MEAN_MOTION_DOT": 2.494e-05, "MEAN_MOTION_DDOT": 0}, "tle": {"line1": "1 38135U 99025EQG 25338.41609735  .00002494  00000+0  83169-3 0  9999", "line2": "2 38135  98.6606  35.2993 0223375  95.5388 267.1312 14.25248820609225"}}, "geometry": {"type": "Point", "coordinates": [18.221744972761062, 72.90815656652936]}}, {"type": "Feature", "properties": {"norad_id": 38137, "name": "FENGYUN 1C DEB", "group": "fengyun-1c-debris", "lat": 66.3023627675324, "lon": -125.31390624000586, "alt_km": 846.6461431952066, "timestamp": "2025-12-17T04:57:44.654503+00:00", "meta": {"OBJECT_NAME": "FENGYUN 1C DEB", "OBJECT_ID": "1999-025EQJ", "EPOCH": "2025-12-11T22:03:53.453088", "MEAN_MOTION": 14.06158007, "ECCENTRICITY": 0.0046494, "INCLINATION": 98.8649, "RA_OF_ASC_NODE": 28.6821, "ARG_OF_PERICENTER": 71.683, "MEAN_ANOMALY": 288.9388, "EPHEMERIS_TYPE": 0, "CLASSIFICATION_TYPE": "U", "NORAD_CAT_ID": 38137, "ELEMENT_SET_NO": 999, "REV_AT_EPOCH": 63697, "BSTAR": 0.00049172, "MEAN_MOTION_DOT": 7.73e-06, "MEAN_MOTION_DDOT": 0}, "tle": {"line1": "1 38137U 99025EQJ 25345.91936867  .00000773  00000+0  49172-3 0  9997", "line2": "2 38137  98.8649  28.6821 0046494  71.6830 288.9388 14.06158007636976"}}, "geometry": {"type": "Point", "coordinates": [-125.31390624000586, 66.3023627675324]}}, {"type": "Feature", "properties": {"norad_id": 38143, "name": "FENGYUN 1C DEB", "group": "fengyun-1c-debris", "lat": -38.60846190596611, "lon": -140.19777111035864, "alt_km": 842.9942216047921, "timestamp": "2025-12-17T04:57:44.654512+00:00", "meta": {"OBJECT_NAME": "FENGYUN 1C DEB", "OBJECT_ID": "1999-025EQQ", "EPOCH": "2025-12-10T09:32:31.718976", "MEAN_MOTION": 14.04887386, "ECCENTRICITY": 0.00563123, "INCLINATION": 99.0315, "RA_OF_ASC_NODE": 40.3233, "ARG_OF_PERICENTER": 227.9602, "MEAN_ANOMALY": 131.6765, "EPHEMERIS_TYPE": 0, "CLASSIFICATION_TYPE": "U", "NORAD_CAT_ID": 38143, "ELEMENT_SET_NO": 999, "REV_AT_EPOCH": 60250, "BSTAR": 0.00083811483, "MEAN_MOTION_DOT": 1.321e-05, "MEAN_MOTION_DDOT": 0}, "tle": {"line1": "1 38143U 99025EQQ 25344.39758934  .00001321  00000+0  83811-3 0  9990", "line2": "2 38143  99.0315  40.3233 0056312 227.9602 131.6765 14.04887386602509"}}, "geometry": {"type": "Point", "coordinates": [-140.19777111035864, -38.60846190596611]}}]}